GALAXY 16               
1 29236C 06023A   20222.93571759 -.00001900  00000-0  00000-0 0  2227
2 29236   0.0062 353.2555 0003031 161.3089  42.1627  1.00271871    15
GALAXY 16               
1 29236C 06023A   20226.00000000 -.00000046  00000-0  00000-0 0  2269
2 29236   0.0299 275.8202 0002492 232.1172  74.9622  1.00271801    16
GALAXY 16           [PM]
1 29236C 06023A   20229.64722222 -.00000037  00000-0  00000-0 0  2292
2 29236   0.0162 205.4362 0002496 308.6911 305.3660  1.00268647    12
GALAXY 17               
1 31307C 07016B   20222.93571759 -.00000084  00000-0  00000-0 0  2224
2 31307   0.0120  62.7565 0003268  84.5931  57.3713  1.00272280    18
GALAXY 17               
1 31307C 07016B   20226.00000000 -.00000084  00000-0  00000-0 0  2266
2 31307   0.0201  69.6177 0003133  81.7986  79.4701  1.00273301    10
GALAXY 17           [PM]
1 31307C 07016B   20228.61427083 -.00000101  00000-0  00000-0 0  2281
2 31307   0.0201 339.1161 0003182 176.1339 299.3602  1.00270804    11
GALAXY 17           [PM]
1 31307C 07016B   20229.47564815 -.00000084  00000-0  00000-0 0  2292
2 31307   0.0329 105.6206 0002746  37.4361 262.4880  1.00269624    14
INTELSAT 11             
1 32253C 07044B   20222.93571759 -.00000179  00000-0  00000-0 0  2221
2 32253   0.0192 253.1954 0001919 277.6531  81.8956  1.00271427    11
INTELSAT 11             
1 32253C 07044B   20226.00000000 -.00000177  00000-0  00000-0 0  2261
2 32253   0.0293 272.6604 0001836 266.4155  99.8315  1.00273060    10
INTELSAT 11         [PM]
1 32253C 07044B   20227.28472222 -.00000185  00000-0  00000-0 0  2271
2 32253   0.0000 129.0153 0001854  54.4231 199.2389  1.00272468    17
HORIZONS 2              
1 32388C 07063B   20222.93571759 -.00003545  00000-0  00000-0 0  2221
2 32388   0.0000 130.1026 0002891  11.7537 238.7121  1.00271874    18
HORIZONS 2              
1 32388C 07063B   20226.00000000 -.00000093  00000-0  00000-0 0  2268
2 32388   0.0067  84.1097 0002675  59.8110 262.8182  1.00273787    17
HORIZONS 2          [PM]
1 32388C 07063B   20229.15262732 -.00000088  00000-0  00000-0 0  2296
2 32388   0.0053 181.5289 0002445 321.7087 321.5684  1.00270521    19
GALAXY 18               
1 32951C 08024A   20222.93571759  .00000114  00000-0  00000-0 0  2223
2 32951   0.0000 120.5460 0003001  28.8997  23.2744  1.00272931    15
GALAXY 18               
1 32951C 08024A   20226.00000000  .00000115  00000-0  00000-0 0  2266
2 32951   0.0061  97.4985 0002898  55.5398  45.8574  1.00271303    14
GALAXY 18           [PM]
1 32951C 08024A   20229.71319444  .00000114  00000-0  00000-0 0  2294
2 32951   0.0174 207.5842 0002877 312.9938 298.7260  1.00271328    10
INTELSAT 25             
1 33153C 08034A   20222.93571759 -.00003875  00000-0  00000-0 0  2227
2 33153   0.0189 192.1333 0001265   1.6366  70.4560  1.00271749    17
INTELSAT 25             
1 33153C 08034A   20226.00000000 -.00000131  00000-0  00000-0 0  2261
2 33153   0.0111 146.2282 0001271  52.6815  91.4767  1.00274975    13
INTELSAT 25         [PM]
1 33153C 08034A   20229.45916667 -.00003872  00000-0  00000-0 0  2296
2 33153   0.0432 251.1756 0001324 324.5261 243.3967  1.00273281    15
GALAXY 19               
1 33376C 08045A   20222.93571759 -.00000066  00000-0  00000-0 0  2225
2 33376   0.0010 187.8534 0003280 320.5540  50.3158  1.00271718    13
GALAXY 19               
1 33376C 08045A   20226.00000000 -.00000060  00000-0  00000-0 0  2261
2 33376   0.0302 274.1856 0003161 239.4591  71.2387  1.00272768    18
GALAXY 19           [PM]
1 33376C 08045A   20227.42361111 -.00000055  00000-0  00000-0 0  2276
2 33376   0.0000 131.8715 0003159  24.7716 222.1487  1.00272722    15
INTELSAT 14             
1 36097C 09064A   20222.93571759 -.00003828  00000-0  00000-0 0  2229
2 36097   0.0001 140.2063 0002200   3.4267 107.0908  1.00272864    16
INTELSAT 14             
1 36097C 09064A   20226.00000000 -.00003568  00000-0  00000-0 0  2262
2 36097   0.0040 108.9402 0002078  41.8443 126.1090  1.00271991    16
INTELSAT 14         [PM]
1 36097C 09064A   20227.95418982 -.00000183  00000-0  00000-0 0  2270
2 36097   0.0106 109.8756 0002073  40.4482 112.0023  1.00273728    14
INTELSAT 15             
1 36106C 09067A   20222.93571759 -.00000095  00000-0  00000-0 0  2226
2 36106   0.0127  91.6781 0002246  56.6527 232.5465  1.00272450    14
INTELSAT 15             
1 36106C 09067A   20226.00000000 -.00000082  00000-0  00000-0 0  2264
2 36106   0.0212 327.6067 0002130 187.0234 252.4125  1.00271890    15
INTELSAT 15         [PM]
1 36106C 09067A   20231.29504630 -.00000062  00000-0  00000-0 0  2313
2 36106   0.0003  87.4518 0001298  46.6337  24.3741  1.00273237    10
INTELSAT 16             
1 36397C 10006A   20222.93571759 -.00000155  00000-0  00000-0 0  2220
2 36397   0.0114  97.9184 0002407  62.4966  59.1125  1.00272092    17
INTELSAT 16             
1 36397C 10006A   20226.00000000 -.00000132  00000-0  00000-0 0  2267
2 36397   0.0283 289.9705 0002482 237.5627  78.1581  1.00271390    15
INTELSAT 16         [PM]
1 36397C 10006A   20233.37430556 -.00000155  00000-0  00000-0 0  2331
2 36397   0.0046 121.8726 0001787  24.1522 241.6904  1.00272295    11
INTELSAT 17         [PM]
1 37238C 10065B   20220.85609954  .00000086  00000-0  00000-0 0  2208
2 37238   0.0429 270.8733 0003012 239.6537 180.4821  1.00271040    11
INTELSAT 17             
1 37238C 10065B   20222.93571759  .00000088  00000-0  00000-0 0  2224
2 37238   0.0376 268.6067 0002880 246.8226 206.2902  1.00271645    12
INTELSAT 17             
1 37238C 10065B   20226.00000000  .00000088  00000-0  00000-0 0  2266
2 37238   0.0221 200.7273 0002781 320.1957 226.9599  1.00272300    14
INTELSAT NEW DAWN   [PM]
1 37392C 11016A   20222.84775463  .00000258  00000-0  00000-0 0  2229
2 37392   0.0391 274.7164 0000513 128.9552 253.0854  1.00269893    17
INTELSAT NEW DAWN       
1 37392C 11016A   20222.93571759  .00000241  00000-0  00000-0 0  2223
2 37392   0.0389 274.5989 0000489 127.9144 285.9966  1.00269999    10
INTELSAT NEW DAWN       
1 37392C 11016A   20226.00000000  .00000241  00000-0  00000-0 0  2265
2 37392   0.0372 253.3183 0000348 113.9259 347.4167  1.00271644    16
INTELSAT 18             
1 37834C 11056A   20222.93571759 -.00004726  00000-0  00000-0 0  2221
2 37834   0.0342 278.3468 0002095 230.7753 326.5913  1.00273167    14
INTELSAT 18             
1 37834C 11056A   20226.00000000  .00000143  00000-0  00000-0 0  2261
2 37834   0.0037  90.6517 0001841  62.1644 349.0782  1.00271772    13
INTELSAT 18         [PM]
1 37834C 11056A   20230.88628472  .00000108  00000-0  00000-0 0  2307
2 37834   0.0001 150.1431 0001826 359.1223 316.5130  1.00266704    11
INTELSAT 22             
1 38098C 12011A   20222.93571759  .00000007  00000-0  00000-0 0  2223
2 38098   0.0001 147.2711 0002530  16.2024 204.3361  1.00271772    16
INTELSAT 22             
1 38098C 12011A   20226.00000000  .00000032  00000-0  00000-0 0  2263
2 38098   0.0005  94.0676 0002453  71.7223 228.1843  1.00273866    15
INTELSAT 22         [PM]
1 38098C 12011A   20229.67092593  .00000040  00000-0  00000-0 0  2299
2 38098   0.0126 200.7457 0002356 333.3510 105.0533  1.00270403    13
INTELSAT 19             
1 38356C 12030A   20222.93571759  .00000024  00000-0  00000-0 0  2220
2 38356   0.0120 335.9890 0002875 169.1276 316.6142  1.00271298    15
INTELSAT 19         [PM]
1 38356C 12030A   20223.93630787  .00000037  00000-0  00000-0 0  2233
2 38356   0.0122 213.6347 0002855 292.3906 316.9040  1.00271491    18
INTELSAT 19             
1 38356C 12030A   20226.00000000 -.00004149  00000-0  00000-0 0  2265
2 38356   0.0002  33.4443 0002744 115.6517 338.7944  1.00272098    11
INTELSAT 20             
1 38740C 12043A   20223.00000000  .00000066  00000-0  00000-0 0  2233
2 38740   0.0105 139.6445 0001079  69.5330 178.2486  1.00271358    19
INTELSAT 20             
1 38740C 12043A   20226.00000000  .00000066  00000-0  00000-0 0  2269
2 38740   0.0102 127.8609 0001033  90.5326 171.9981  1.00271907    16
INTELSAT 20         [PM]
1 38740C 12043A   20227.35712963  .00000066  00000-0  00000-0 0  2277
2 38740   0.0107 117.8958 0001228  88.8400 313.5564  1.00273041    18
INTELSAT 21             
1 38749C 12045A   20222.93571759 -.00003655  00000-0  00000-0 0  2226
2 38749   0.0000 132.6307 0002082  14.5266  90.5691  1.00271985    15
INTELSAT 21             
1 38749C 12045A   20226.00000000 -.00000221  00000-0  00000-0 0  2264
2 38749   0.0047 101.2319 0001912  48.0515 114.6034  1.00273680    14
INTELSAT 21         [PM]
1 38749C 12045A   20230.03098380 -.00000389  00000-0  00000-0 0  2300
2 38749   0.0279 227.4415 0001885 290.0526 121.5315  1.00270980    18
INTELSAT 23             
1 38867C 12057A   20222.93571759 -.00003720  00000-0  00000-0 0  2223
2 38867   0.0075 174.9476 0001716 326.5886 101.1699  1.00274611    17
INTELSAT 23             
1 38867C 12057A   20226.00000000 -.00000211  00000-0  00000-0 0  2267
2 38867   0.0018 118.9655 0001574  29.2274 120.7017  1.00273647    10
INTELSAT 23         [PM]
1 38867C 12057A   20229.53623843 -.00003936  00000-0  00000-0 0  2294
2 38867   0.0296 222.1721 0001484 294.7781 308.4897  1.00271625    17
INTELSAT 30             
1 40271C 14062A   20223.00000000 -.00000060  00000-0  00000-0 0  2233
2 40271   0.0001 103.0593 0001641 357.1617 123.6623  1.00271139    18
INTELSAT 30         [PM]
1 40271C 14062A   20224.03190972 -.00000080  00000-0  00000-0 0  2248
2 40271   0.0001  89.0349 0001510   6.6746 140.6738  1.00273727    15
INTELSAT 30             
1 40271C 14062A   20226.00000000 -.00000061  00000-0  00000-0 0  2260
2 40271   0.0034  91.4521 0001474   7.5751 127.8181  1.00271710    14
INTELSAT 34             
1 40874C 15039A   20223.00000000 -.00000235  00000-0  00000-0 0  2231
2 40874   0.0298 279.1653 0000233 107.5755 236.6950  1.00271239    12
